OBJECT_NAME,OBJECT_ID,EPOCH,MEAN_MOTION,ECCENTRICITY,INCLINATION,RA_OF_ASC_NODE,ARG_OF_PERICENTER,MEAN_ANOMALY,EPHEMERIS_TYPE,CLASSIFICATION_TYPE,NORAD_CAT_ID,ELEMENT_SET_NO,REV_AT_EPOCH,BSTAR,MEAN_MOTION_DOT,MEAN_MOTION_DDOT
STARLINK-31996,2024-117K,2026-06-09T17:51:09.173088,15.30186418,.00013779,53.1623,329.3083,79.1467,280.9689,0,U,60100,999,11098,.33828227E-4,.642E-5,0
STARLINK-31999,2024-117L,2026-06-09T17:22:26.162688,15.30179969,.00010318,53.1618,329.8985,85.4542,274.6577,0,U,60101,999,11097,.10007994E-3,.2604E-4,0
STARLINK-31954,2024-117M,2026-06-09T18:47:22.518528,15.30195037,.00013323,53.1619,329.5550,82.2801,277.8351,0,U,60102,999,11098,.31215884E-4,.565E-5,0
STARLINK-32013,2024-117N,2026-06-09T18:42:48.079296,15.30202807,.00010299,53.1620,329.5344,90.6387,269.4731,0,U,60103,999,11098,.7580828E-4,.1887E-4,0
STARLINK-32009,2024-117P,2026-06-09T17:26:58.225920,15.30198490,.00014344,53.1622,329.8888,101.2687,258.8475,0,U,60104,999,11097,.13501097E-3,.3641E-4,0
STARLINK-32018,2024-117Q,2026-06-09T18:29:08.882880,15.30179510,.00010354,53.1632,329.4768,107.8821,252.2293,0,U,60105,999,11098,-.54199539E-4,-.1963E-4,0
STARLINK-32045,2024-117R,2026-06-09T16:59:39.640416,15.30212061,.00028819,53.1591,329.7990,26.4597,333.6551,0,U,60106,999,11097,.8586246E-3,.25168E-3,0
STARLINK-32035,2024-117S,2026-06-09T18:13:56.643168,15.30193450,.00011227,53.1609,329.4080,84.8162,275.2967,0,U,60107,999,11098,.90932259E-4,.2334E-4,0
STARLINK-32042,2024-117T,2026-06-09T18:00:15.437952,15.30200870,.00011082,53.1616,329.3482,94.6577,265.4550,0,U,60108,999,11098,.20517999E-3,.5723E-4,0
STARLINK-32040,2024-117U,2026-06-09T17:34:26.645376,15.30183801,.00012822,53.1622,329.2445,72.3233,287.7907,0,U,60109,999,11098,.2633846E-5,-.281E-5,0
STARLINK-32001,2024-117V,2026-06-09T17:46:34.910976,15.30191998,.00014595,53.1608,329.2877,90.4044,269.7124,0,U,60110,999,11098,.10681747E-3,.2805E-4,0
STARLINK-32015,2024-117W,2026-06-09T17:37:28.201152,15.30206499,.00013331,53.1601,329.2469,94.6033,265.5121,0,U,60111,999,11098,.30853954E-3,.8792E-4,0
STARLINK-32024,2024-117X,2026-06-09T17:55:42.051936,15.30206395,.00012771,53.1623,329.3284,81.2341,278.8804,0,U,60112,999,11098,.88469945E-4,.2262E-4,0
STARLINK-11201 [DTC],2024-118A,2026-06-09T05:05:07.726272,15.69677150,.0000865,53.1585,130.4036,56.2326,303.8774,0,U,60113,999,11236,.63829E-4,.7141E-4,0
STARLINK-11198 [DTC],2024-118B,2026-06-09T06:29:45.136320,15.69694428,.0001085,53.1583,130.0576,81.9659,278.1482,0,U,60114,999,11237,.34803E-4,.3627E-4,0
STARLINK-11112 [DTC],2024-118C,2026-06-09T04:51:00.305568,15.69687955,.000114,53.1576,130.3414,87.6058,272.5090,0,U,60115,999,11236,.28719043E-4,.2889E-4,0
STARLINK-11210 [DTC],2024-118D,2026-06-09T15:24:41.264928,15.70218938,.0001785,53.1570,128.1055,145.6441,214.4693,0,U,60116,999,11243,.30531263E-3,.37357E-3,0
STARLINK-11203 [DTC],2024-118E,2026-06-09T15:18:39.178944,15.69731560,.00008053,53.1594,128.0770,76.4974,283.6134,0,U,60117,999,11243,-.5079151E-4,-.6742E-4,0
STARLINK-11177 [DTC],2024-118F,2026-06-09T15:11:35.948544,15.69697516,.00008771,53.1579,128.0474,75.1878,284.9237,0,U,60118,999,11243,.14657199E-4,.1187E-4,0
STARLINK-11127 [DTC],2024-118G,2026-06-09T15:04:32.650752,15.69687985,.00012372,53.1583,128.0144,92.4328,267.6832,0,U,60119,999,11243,.29942219E-4,.3037E-4,0
STARLINK-11164 [DTC],2024-118H,2026-06-09T14:57:29.074752,15.69692258,.00009853,53.1590,127.9806,77.7495,282.3633,0,U,60120,999,11243,.47646478E-4,.5183E-4,0
STARLINK-11119 [DTC],2024-118J,2026-06-09T14:36:16.356096,15.69713163,.00009507,53.1593,127.8792,61.3417,298.7696,0,U,60121,999,11243,.10958682E-4,.74E-5,0
STARLINK-11157 [DTC],2024-118K,2026-06-09T14:43:20.281152,15.69708398,.00010422,53.1591,127.9129,73.5555,286.5577,0,U,60122,999,11243,.10673756E-4,.705E-5,0
STARLINK-11162 [DTC],2024-118L,2026-06-09T02:15:44.666208,15.69714912,.0000969,53.1570,130.3588,88.0035,272.1094,0,U,60123,999,11235,.22511036E-4,.214E-4,0
STARLINK-11161 [DTC],2024-118M,2026-06-09T02:08:49.312032,15.69709759,.00007035,53.1589,131.0609,60.3498,299.7590,0,U,60124,999,11234,.9511186E-5,.564E-5,0
STARLINK-11160 [DTC],2024-118N,2026-06-09T14:50:24.846432,15.69682977,.00009695,53.1588,127.9437,66.8560,293.2560,0,U,60125,999,11243,.49819863E-4,.5445E-4,0
STARLINK-31846,2024-118P,2026-06-09T16:26:03.492960,15.31698174,.00010709,53.1620,319.2403,86.2272,273.8852,0,U,60126,999,10978,.99689094E-4,.2729E-4,0
STARLINK-31840,2024-118Q,2026-06-09T16:19:17.389632,15.31727700,.00010023,53.1613,319.2154,79.4525,280.6590,0,U,60127,999,10978,.22810611E-3,.6726E-4,0
STARLINK-31813,2024-118R,2026-06-09T17:19:41.036736,15.31704333,.00012179,53.1621,318.7674,84.7006,275.4135,0,U,60128,999,10979,-.4976452E-5,-.52E-5,0
STARLINK-31845,2024-118S,2026-06-09T16:45:12.772800,15.30192950,.00008565,53.1613,317.1881,90.0582,270.0517,0,U,60129,999,10981,.825414E-6,-.334E-5,0
