STARLINK-31996          
1 60100U 24117K   26160.74385617  .00000642  00000+0  33828-4 0  9997
2 60100  53.1623 329.3083 0001377  79.1467 280.9689 15.30186418110987
STARLINK-31999          
1 60101U 24117L   26160.72391392  .00002604  00000+0  10008-3 0  9997
2 60101  53.1618 329.8985 0001031  85.4542 274.6577 15.30179969110977
STARLINK-31954          
1 60102U 24117M   26160.78289952  .00000565  00000+0  31216-4 0  9991
2 60102  53.1619 329.5550 0001332  82.2801 277.8351 15.30195037110981
STARLINK-32013          
1 60103U 24117N   26160.77972314  .00001887  00000+0  75808-4 0  9995
2 60103  53.1620 329.5344 0001029  90.6387 269.4731 15.30202807110983
STARLINK-32009          
1 60104U 24117P   26160.72706280  .00003641  00000+0  13501-3 0  9999
2 60104  53.1622 329.8888 0001434 101.2687 258.8475 15.30198490110972
STARLINK-32018          
1 60105U 24117Q   26160.77024170 -.00001963  00000+0 -54200-4 0  9995
2 60105  53.1632 329.4768 0001035 107.8821 252.2293 15.30179510110985
STARLINK-32045          
1 60106U 24117R   26160.70809769  .00025168  00000+0  85862-3 0  9992
2 60106  53.1591 329.7990 0002881  26.4597 333.6551 15.30212061110975
STARLINK-32035          
1 60107U 24117S   26160.75968337  .00002334  00000+0  90932-4 0  9990
2 60107  53.1609 329.4080 0001122  84.8162 275.2967 15.30193450110989
STARLINK-32042          
1 60108U 24117T   26160.75017868  .00005723  00000+0  20518-3 0  9992
2 60108  53.1616 329.3482 0001108  94.6577 265.4550 15.30200870110980
STARLINK-32040          
1 60109U 24117U   26160.73225284 -.00000281  00000+0  26338-5 0  9997
2 60109  53.1622 329.2445 0001282  72.3233 287.7907 15.30183801110988
STARLINK-32001          
1 60110U 24117V   26160.74068184  .00002805  00000+0  10682-3 0  9990
2 60110  53.1608 329.2877 0001459  90.4044 269.7124 15.30191998110987
STARLINK-32015          
1 60111U 24117W   26160.73435418  .00008792  00000+0  30854-3 0  9992
2 60111  53.1601 329.2469 0001333  94.6033 265.5121 15.30206499110987
STARLINK-32024          
1 60112U 24117X   26160.74701449  .00002262  00000+0  88470-4 0  9998
2 60112  53.1623 329.3284 0001277  81.2341 278.8804 15.30206395110989
STARLINK-11201 [DTC]    
1 60113U 24118A   26160.21189498  .00007141  00000+0  63829-4 0  9998
2 60113  53.1585 130.4036 0000865  56.2326 303.8774 15.69677150112362
STARLINK-11198 [DTC]    
1 60114U 24118B   26160.27066130  .00003627  00000+0  34803-4 0  9997
2 60114  53.1583 130.0576 0001085  81.9659 278.1482 15.69694428112373
STARLINK-11112 [DTC]    
1 60115U 24118C   26160.20208687  .00002889  00000+0  28719-4 0  9994
2 60115  53.1576 130.3414 0001140  87.6058 272.5090 15.69687955112367
STARLINK-11210 [DTC]    
1 60116U 24118D   26160.64214427  .00037357  00000+0  30531-3 0  9994
2 60116  53.1570 128.1055 0001785 145.6441 214.4693 15.70218938112439
STARLINK-11203 [DTC]    
1 60117U 24118E   26160.63795346 -.00006742  00000+0 -50792-4 0  9996
2 60117  53.1594 128.0770 0000805  76.4974 283.6134 15.69731560112430
STARLINK-11177 [DTC]    
1 60118U 24118F   26160.63305496  .00001187  00000+0  14657-4 0  9996
2 60118  53.1579 128.0474 0000877  75.1878 284.9237 15.69697516112433
STARLINK-11127 [DTC]    
1 60119U 24118G   26160.62815568  .00003037  00000+0  29942-4 0  9991
2 60119  53.1583 128.0144 0001237  92.4328 267.6832 15.69687985112434
STARLINK-11164 [DTC]    
1 60120U 24118H   26160.62325318  .00005183  00000+0  47646-4 0  9997
2 60120  53.1590 127.9806 0000985  77.7495 282.3633 15.69692258112439
STARLINK-11119 [DTC]    
1 60121U 24118J   26160.60852264  .00000740  00000+0  10959-4 0  9992
2 60121  53.1593 127.8792 0000950  61.3417 298.7696 15.69713163112430
STARLINK-11157 [DTC]    
1 60122U 24118K   26160.61342918  .00000705  00000+0  10674-4 0  9999
2 60122  53.1591 127.9129 0001042  73.5555 286.5577 15.69708398112432
STARLINK-11162 [DTC]    
1 60123U 24118L   26160.09426697  .00002140  00000+0  22511-4 0  9997
2 60123  53.1570 130.3588 0000969  88.0035 272.1094 15.69714912112353
STARLINK-11161 [DTC]    
1 60124U 24118M   26160.08945963  .00000564  00000+0  95112-5 0  9995
2 60124  53.1589 131.0609 0000703  60.3498 299.7590 15.69709759112346
STARLINK-11160 [DTC]    
1 60125U 24118N   26160.61834313  .00005445  00000+0  49820-4 0  9998
2 60125  53.1588 127.9437 0000969  66.8560 293.2560 15.69682977112432
STARLINK-31846          
1 60126U 24118P   26160.68476265  .00002729  00000+0  99689-4 0  9994
2 60126  53.1620 319.2403 0001070  86.2272 273.8852 15.31698174109786
STARLINK-31840          
1 60127U 24118Q   26160.68006238  .00006726  00000+0  22811-3 0  9997
2 60127  53.1613 319.2154 0001002  79.4525 280.6590 15.31727700109785
STARLINK-31813          
1 60128U 24118R   26160.72200274 -.00000520  00000+0 -49765-5 0  9996
2 60128  53.1621 318.7674 0001217  84.7006 275.4135 15.31704333109792
STARLINK-31845          
1 60129U 24118S   26160.69806450 -.00000334  00000+0  82541-6 0  9993
2 60129  53.1613 317.1881 0000856  90.0582 270.0517 15.30192950109817
